[Satellite]
VERSION=1.1
NAME=INTEGRAL
NICKNAME=INTEGRAL
TLE1=1 27540U 02048A   18021.95176032  .00001031  00000-0  00000+0 0  9991
TLE2=2 27540  49.0858 177.2232 8411146 265.1664   0.4650  0.37581520 15128
